start=new Date('2022-01-03T00:00:00.000Z').valueOf();
sats=[{"EPHEMERIS_TYPE":"0","REF_FRAME":"TEME","NORAD_CAT_ID":"47740","DECAY_DATE":null,"EPOCH":"2022-01-02T21:51:52.645536","OBJECT_ID":"2021-017U","SEMIMAJOR_AXIS":"6925.344","PERIOD":"95.592","RA_OF_ASC_NODE":"225.6044","TIME_SYSTEM":"UTC","ECCENTRICITY":"0.00019070","MEAN_MOTION_DOT":"0.00001189","BSTAR":"0.00009870100000","PERIAPSIS":"545.889","OBJECT_TYPE":"PAYLOAD","ELEMENT_SET_NO":"999","OBJECT_NAME":"STARLINK-2152","GP_ID":"192943652","FILE":"3255249","CENTER_NAME":"EARTH","RCS_SIZE":"LARGE","TLE_LINE1":"1 47740U 21017U   22002.91102599  .00001189  00000-0  98701-4 0  9993","SITE":"AFETR","LAUNCH_DATE":"2021-03-04","MEAN_ANOMALY":"290.4568","MEAN_ELEMENT_THEORY":"SGP4","ARG_OF_PERICENTER":"69.6626","REV_AT_EPOCH":"4765","MEAN_MOTION_DDOT":"0.0000000000000","CLASSIFICATION_TYPE":"U","COUNTRY_CODE":"US","TLE_LINE2":"2 47740  53.0534 225.6044 0001907  69.6626 290.4568 15.06401371 47653","APOAPSIS":"548.530","INCLINATION":"53.0534","MEAN_MOTION":"15.06401371"},{"ARG_OF_PERICENTER":"72.9815","REV_AT_EPOCH":"4761","MEAN_MOTION_DDOT":"0.0000000000000","CLASSIFICATION_TYPE":"U","COUNTRY_CODE":"US","TLE_LINE2":"2 47741  53.0532 225.5370 0002022  72.9815 287.1395 15.06396580 47611","APOAPSIS":"548.624","INCLINATION":"53.0532","MEAN_MOTION":"15.06396580","OBJECT_NAME":"STARLINK-2154","GP_ID":"192943902","FILE":"3255249","CENTER_NAME":"EARTH","RCS_SIZE":"LARGE","TLE_LINE1":"1 47741U 21017V   22002.92578512  .00002316  00000-0  17435-3 0  9994","SITE":"AFETR","LAUNCH_DATE":"2021-03-04","MEAN_ANOMALY":"287.1395","MEAN_ELEMENT_THEORY":"SGP4","BSTAR":"0.00017435000000","MEAN_MOTION_DOT":"0.00002316","ECCENTRICITY":"0.00020220","OBJECT_TYPE":"PAYLOAD","PERIAPSIS":"545.824","ELEMENT_SET_NO":"999","EPHEMERIS_TYPE":"0","REF_FRAME":"TEME","NORAD_CAT_ID":"47741","DECAY_DATE":null,"EPOCH":"2022-01-02T22:13:07.834368","OBJECT_ID":"2021-017V","RA_OF_ASC_NODE":"225.5370","PERIOD":"95.592","SEMIMAJOR_AXIS":"6925.359","TIME_SYSTEM":"UTC"},{"ARG_OF_PERICENTER":"74.8223","REV_AT_EPOCH":"4778","MEAN_MOTION_DDOT":"0.0000000000000","CLASSIFICATION_TYPE":"U","COUNTRY_CODE":"US","TLE_LINE2":"2 47742  53.0544 216.0842 0002086  74.8223 285.2997 15.06392434 47787","APOAPSIS":"548.681","INCLINATION":"53.0544","MEAN_MOTION":"15.06392434","OBJECT_NAME":"STARLINK-2156","FILE":"3255249","GP_ID":"192944153","CENTER_NAME":"EARTH","RCS_SIZE":"LARGE","TLE_LINE1":"1 47742U 21017W   22002.80507363  .00001252  00000-0  10300-3 0  9990","SITE":"AFETR","LAUNCH_DATE":"2021-03-04","MEAN_ELEMENT_THEORY":"SGP4","MEAN_ANOMALY":"285.2997","MEAN_MOTION_DOT":"0.00001252","BSTAR":"0.00010300000000","ECCENTRICITY":"0.00020860","OBJECT_TYPE":"PAYLOAD","PERIAPSIS":"545.792","ELEMENT_SET_NO":"999","EPHEMERIS_TYPE":"0","REF_FRAME":"TEME","NORAD_CAT_ID":"47742","DECAY_DATE":null,"EPOCH":"2022-01-02T19:19:18.361632","OBJECT_ID":"2021-017W","PERIOD":"95.593","SEMIMAJOR_AXIS":"6925.372","RA_OF_ASC_NODE":"216.0842","TIME_SYSTEM":"UTC"},{"SITE":"AFETR","TLE_LINE1":"1 47743U 21017X   22002.83086742  .00001127  00000-0  94542-4 0  9999","LAUNCH_DATE":"2021-03-04","MEAN_ANOMALY":"287.1132","MEAN_ELEMENT_THEORY":"SGP4","FILE":"3255249","GP_ID":"192944903","OBJECT_NAME":"STARLINK-2157","RCS_SIZE":"LARGE","CENTER_NAME":"EARTH","APOAPSIS":"548.663","TLE_LINE2":"2 47743  53.0552 215.9487 0002079  73.0085 287.1132 15.06396862 47768","INCLINATION":"53.0552","MEAN_MOTION":"15.06396862","MEAN_MOTION_DDOT":"0.0000000000000","ARG_OF_PERICENTER":"73.0085","REV_AT_EPOCH":"4776","COUNTRY_CODE":"US","CLASSIFICATION_TYPE":"U","EPOCH":"2022-01-02T19:56:26.945088","DECAY_DATE":null,"RA_OF_ASC_NODE":"215.9487","PERIOD":"95.592","SEMIMAJOR_AXIS":"6925.358","TIME_SYSTEM":"UTC","OBJECT_ID":"2021-017X","REF_FRAME":"TEME","NORAD_CAT_ID":"47743","EPHEMERIS_TYPE":"0","OBJECT_TYPE":"PAYLOAD","PERIAPSIS":"545.783","ELEMENT_SET_NO":"999","MEAN_MOTION_DOT":"0.00001127","BSTAR":"0.00009454200000","ECCENTRICITY":"0.00020790"},{"CENTER_NAME":"EARTH","RCS_SIZE":"LARGE","OBJECT_NAME":"STARLINK-2158","FILE":"3255249","GP_ID":"192943152","LAUNCH_DATE":"2021-03-04","MEAN_ANOMALY":"288.3618","MEAN_ELEMENT_THEORY":"SGP4","TLE_LINE1":"1 47744U 21017Y   22002.87509055  .00001016  00000-0  87125-4 0  9997","SITE":"AFETR","CLASSIFICATION_TYPE":"U","COUNTRY_CODE":"US","ARG_OF_PERICENTER":"71.7589","REV_AT_EPOCH":"4779","MEAN_MOTION_DDOT":"0.0000000000000","MEAN_MOTION":"15.06400756","INCLINATION":"53.0544","TLE_LINE2":"2 47744  53.0544 215.7650 0002007  71.7589 288.3618 15.06400756 47798","APOAPSIS":"548.601","EPHEMERIS_TYPE":"0","REF_FRAME":"TEME","NORAD_CAT_ID":"47744","OBJECT_ID":"2021-017Y","SEMIMAJOR_AXIS":"6925.346","PERIOD":"95.592","RA_OF_ASC_NODE":"215.7650","TIME_SYSTEM":"UTC","DECAY_DATE":null,"EPOCH":"2022-01-02T21:00:07.823520","BSTAR":"0.00008712500000","MEAN_MOTION_DOT":"0.00001016","ECCENTRICITY":"0.00020070","ELEMENT_SET_NO":"999","PERIAPSIS":"545.821","OBJECT_TYPE":"PAYLOAD"},{"ARG_OF_PERICENTER":"67.3826","REV_AT_EPOCH":"4758","MEAN_MOTION_DDOT":"0.0000000000000","CLASSIFICATION_TYPE":"U","COUNTRY_CODE":"US","TLE_LINE2":"2 47745  53.0537 226.2380 0002148  67.3826 292.7390 15.06391776 47583","APOAPSIS":"548.726","INCLINATION":"53.0537","MEAN_MOTION":"15.06391776","OBJECT_NAME":"STARLINK-2159","GP_ID":"192943402","FILE":"3255249","CENTER_NAME":"EARTH","RCS_SIZE":"LARGE","TLE_LINE1":"1 47745U 21017Z   22002.77096984  .00002135  00000-0  16226-3 0  9995","SITE":"AFETR","LAUNCH_DATE":"2021-03-04","MEAN_ANOMALY":"292.7390","MEAN_ELEMENT_THEORY":"SGP4","ECCENTRICITY":"0.00021480","MEAN_MOTION_DOT":"0.00002135","BSTAR":"0.00016226000000","PERIAPSIS":"545.751","OBJECT_TYPE":"PAYLOAD","ELEMENT_SET_NO":"999","EPHEMERIS_TYPE":"0","REF_FRAME":"TEME","NORAD_CAT_ID":"47745","DECAY_DATE":null,"EPOCH":"2022-01-02T18:30:11.794176","OBJECT_ID":"2021-017Z","PERIOD":"95.593","RA_OF_ASC_NODE":"226.2380","SEMIMAJOR_AXIS":"6925.374","TIME_SYSTEM":"UTC"},{"MEAN_MOTION_DOT":"0.00000943","ECCENTRICITY":"0.00020940","BSTAR":"0.00008225200000","OBJECT_TYPE":"PAYLOAD","PERIAPSIS":"545.797","ELEMENT_SET_NO":"999","EPHEMERIS_TYPE":"0","NORAD_CAT_ID":"47746","REF_FRAME":"TEME","DECAY_DATE":null,"EPOCH":"2022-01-02T19:55:07.362912","OBJECT_ID":"2021-017AA","TIME_SYSTEM":"UTC","RA_OF_ASC_NODE":"225.9493","PERIOD":"95.593","SEMIMAJOR_AXIS":"6925.382","REV_AT_EPOCH":"4758","ARG_OF_PERICENTER":"63.9402","MEAN_MOTION_DDOT":"0.0000000000000","CLASSIFICATION_TYPE":"U","COUNTRY_CODE":"US","TLE_LINE2":"2 47746  53.0545 225.9493 0002094  63.9402 296.1802 15.06388989 47584","APOAPSIS":"548.697","INCLINATION":"53.0545","MEAN_MOTION":"15.06388989","OBJECT_NAME":"STARLINK-2160","FILE":"3255249","GP_ID":"192944654","CENTER_NAME":"EARTH","RCS_SIZE":"LARGE","TLE_LINE1":"1 47746U 21017AA  22002.82994633  .00000943  00000-0  82252-4 0  9998","SITE":"AFETR","MEAN_ELEMENT_THEORY":"SGP4","MEAN_ANOMALY":"296.1802","LAUNCH_DATE":"2021-03-04"},{"COUNTRY_CODE":"US","CLASSIFICATION_TYPE":"U","MEAN_MOTION_DDOT":"0.0000000000000","ARG_OF_PERICENTER":"72.0657","REV_AT_EPOCH":"4776","INCLINATION":"53.0545","MEAN_MOTION":"15.06398837","APOAPSIS":"548.735","TLE_LINE2":"2 47747  53.0545 215.9805 0002192  72.0657 288.0570 15.06398837 47768","RCS_SIZE":"LARGE","CENTER_NAME":"EARTH","GP_ID":"192944403","FILE":"3255249","OBJECT_NAME":"STARLINK-2161","LAUNCH_DATE":"2021-03-04","MEAN_ANOMALY":"288.0570","MEAN_ELEMENT_THEORY":"SGP4","SITE":"AFETR","TLE_LINE1":"1 47747U 21017AB  22002.82718747 -.00000621  00000-0 -22741-4 0  9991","ECCENTRICITY":"0.00021920","MEAN_MOTION_DOT":"-0.00000621","BSTAR":"-0.00002274100000","ELEMENT_SET_NO":"999","PERIAPSIS":"545.699","OBJECT_TYPE":"PAYLOAD","REF_FRAME":"TEME","NORAD_CAT_ID":"47747","EPHEMERIS_TYPE":"0","SEMIMAJOR_AXIS":"6925.352","PERIOD":"95.592","RA_OF_ASC_NODE":"215.9805","TIME_SYSTEM":"UTC","OBJECT_ID":"2021-017AB","EPOCH":"2022-01-02T19:51:08.997408","DECAY_DATE":null},{"EPHEMERIS_TYPE":"0","NORAD_CAT_ID":"47748","REF_FRAME":"TEME","DECAY_DATE":null,"EPOCH":"2022-01-02T21:16:03.805824","OBJECT_ID":"2021-017AC","TIME_SYSTEM":"UTC","PERIOD":"95.592","SEMIMAJOR_AXIS":"6925.352","RA_OF_ASC_NODE":"215.7177","MEAN_MOTION_DOT":"0.00001434","ECCENTRICITY":"0.00020820","BSTAR":"0.00011516000000","OBJECT_TYPE":"PAYLOAD","PERIAPSIS":"545.775","ELEMENT_SET_NO":"999","OBJECT_NAME":"STARLINK-2162","GP_ID":"192943653","FILE":"3255249","CENTER_NAME":"EARTH","RCS_SIZE":"LARGE","TLE_LINE1":"1 47748U 21017AC  22002.88615516  .00001434  00000-0  11516-3 0  9996","SITE":"AFETR","MEAN_ELEMENT_THEORY":"SGP4","MEAN_ANOMALY":"287.4055","LAUNCH_DATE":"2021-03-04","REV_AT_EPOCH":"4774","ARG_OF_PERICENTER":"72.7162","MEAN_MOTION_DDOT":"0.0000000000000","CLASSIFICATION_TYPE":"U","COUNTRY_CODE":"US","TLE_LINE2":"2 47748  53.0544 215.7177 0002082  72.7162 287.4055 15.06398813 47747","APOAPSIS":"548.659","MEAN_MOTION":"15.06398813","INCLINATION":"53.0544"},{"MEAN_MOTION_DOT":"0.00002224","BSTAR":"0.00016815000000","ECCENTRICITY":"0.00019100","OBJECT_TYPE":"PAYLOAD","PERIAPSIS":"545.864","ELEMENT_SET_NO":"999","NORAD_CAT_ID":"47749","REF_FRAME":"TEME","EPHEMERIS_TYPE":"0","EPOCH":"2022-01-02T21:37:16.424256","DECAY_DATE":null,"TIME_SYSTEM":"UTC","RA_OF_ASC_NODE":"215.6327","PERIOD":"95.592","SEMIMAJOR_AXIS":"6925.321","OBJECT_ID":"2021-017AD","MEAN_MOTION_DDOT":"0.0000000000000","REV_AT_EPOCH":"4774","ARG_OF_PERICENTER":"73.1130","COUNTRY_CODE":"US","CLASSIFICATION_TYPE":"U","APOAPSIS":"548.509","TLE_LINE2":"2 47749  53.0536 215.6327 0001910  73.1130 287.0068 15.06408872 47741","MEAN_MOTION":"15.06408872","INCLINATION":"53.0536","GP_ID":"192943903","FILE":"3255249","OBJECT_NAME":"STARLINK-2163","RCS_SIZE":"LARGE","CENTER_NAME":"EARTH","SITE":"AFETR","TLE_LINE1":"1 47749U 21017AD  22002.90088454  .00002224  00000-0  16815-3 0  9990","MEAN_ELEMENT_THEORY":"SGP4","MEAN_ANOMALY":"287.0068","LAUNCH_DATE":"2021-03-04"}];
